[
    {
        "Altitude(m)": 624792.7934594469,
        "Argument of Periapsis(deg)": 0.0,
        "Eccentricity": 0.0,
        "Inclination(deg)": 60.0,
        "Latitude(deg)": -59.147152411111044,
        "Longitude(deg)": -135.97374113750095,
        "Mean Anomaly(deg)": 261.8182,
        "RAAN(deg)": 70.0,
        "Satellite Name": "Test1 324",
        "Satellite Number": 324,
        "Semi-Major Axis(m)": 6980739.136638005,
        "Time(s)": 0
    },
    {
        "Altitude(m)": 624842.1859913045,
        "Argument of Periapsis(deg)": 0.00010418945913296404,
        "Eccentricity": 0.0,
        "Inclination(deg)": 60.0,
        "Latitude(deg)": -59.289237686452374,
        "Longitude(deg)": -134.8442357113303,
        "Mean Anomaly(deg)": 262.43830614546187,
        "RAAN(deg)": 69.99957995086027,
        "Satellite Name": "Test1 324",
        "Satellite Number": 324,
        "Semi-Major Axis(m)": 6980739.136638005,
        "Time(s)": 10
    }
]